ECHOSTAR 7              
1 27378U 02006A   21193.59852543  .00000005  00000-0  00000-0 0  9997
2 27378   0.0353 283.2036 0001744 151.1694 313.0139  1.00271265 32545
INTELSAT 904 (IS-904)   
1 27380U 02007A   21193.45988892 -.00000210  00000-0  00000-0 0  9992
2 27380   2.3954  89.5100 0003086  23.2142 313.9025  1.00272515 33708
TDRS 9                  
1 27389U 02011A   21193.49219627 -.00000285  00000-0  00000-0 0  9995
2 27389   8.3015  63.8977 0022777 294.1566  47.5065  1.00275521 72386
ASTRA 3A                
1 27400U 02015B   21193.55761712 -.00000201  00000-0  00000-0 0  9995
2 27400   6.6968  61.3073 0001158  37.5401 305.7523  1.00274169 70669
NSS-7                   
1 27414U 02019A   21193.39004118 -.00000155  00000-0  00000-0 0  9994
2 27414   5.1146  73.9934 0002282  43.2100 293.6991  1.00271547 70504
DIRECTV 5 (TEMPO 1)     
1 27426U 02023A   21193.51554544 -.00000050  00000-0  00000-0 0  9993
2 27426   0.2785  97.3384 0003349  25.2689 243.4942  1.00271384 70067
INTELSAT 905 (IS-905)   
1 27438U 02027A   21193.46084851 -.00000180  00000-0  00000-0 0  9997
2 27438   2.2169  90.3119 0002536  22.5594 319.0992  1.00271272 33306
GALAXY 3C (G-3C)        
1 27445U 02030A   21193.51859869 -.00000145  00000-0  00000-0 0  9995
2 27445   0.0228 317.0272 0001721  10.4199  54.8132  1.00270508 28447
EUTELSAT 5 WEST A       
1 27460U 02035A   21193.32123935 -.00000037  00000-0  00000-0 0  9994
2 27460   1.4873  93.0881 0005005  11.0705 296.9123  1.00272212 69551
METEOSAT-8 (MSG-1)      
1 27509U 02040B   21193.18698326  .00000138  00000-0  00000-0 0  9990
2 27509   7.4145  52.3675 0001597  12.7416 334.1197  1.00280556 69197
INTELSAT 906 (IS-906)   
1 27513U 02041A   21193.55035258  .00000019  00000-0  00000-0 0  9994
2 27513   1.2270  94.5070 0003228  22.1183  76.2880  1.00271956 68971
HISPASAT 30W-4          
1 27528U 02044A   21193.57655299  .00000121  00000-0  00000-0 0  9992
2 27528   2.0054  90.4144 0005631  14.9699 249.8221  1.00273177 24914
TDRS 10                 
1 27566U 02055A   21193.54894979  .00000092  00000-0  00000-0 0  9990
2 27566   7.5896  51.7710 0009785 339.8803 285.4662  1.00269136 68170
NSS-6                   
1 27603U 02057A   21193.55188177  .00000113  00000-0  00000-0 0  9995
2 27603   0.7616  95.6003 0003971  12.4618 211.7381  1.00272106 67987
NIMIQ 2                 
1 27632U 02062A   21193.55541226 -.00000225  00000-0  00000-0 0  9996
2 27632   5.2255  73.0915 0012983  19.7383 127.2514  1.00271374 26139
USA 167                 
1 27691U 03008A   21193.58846875  .00000058  00000-0  00000-0 0  9996
2 27691   7.3822  56.6960 0003885  22.9784 292.6539  1.00272230 14892
USA 169 (MILSTAR-2 4)   
1 27711U 03012A   21193.51391854 -.00000193  00000-0  00000-0 0  9990
2 27711   9.6209  42.3816 0002247  68.6155 156.7421  1.00270190 14894
GALAXY 12 (G-12)        
1 27715U 03013B   21193.58992140  .00000062  00000-0  00000+0 0  9990
2 27715   2.4307  89.0223 0001731  27.4685 257.5652  1.00271583 66953
ASIASAT 4               
1 27718U 03014A   21193.54520566  .00000159  00000-0  00000-0 0  9997
2 27718   0.1263 101.2974 0001645  16.5328  47.2484  1.00272995 27243
HELLAS-SAT 2            
1 27811U 03020A   21193.51859869 -.00000147  00000-0  00000+0 0  9993
2 27811   2.8480  88.2001 0004244  24.0093 269.8943  1.00272056 66280
THURAYA-2               
1 27825U 03026A   21193.25904014  .00000131  00000-0  00000-0 0  9991
2 27825   6.3289  33.9259 0004775  66.8731 326.8131  1.00273372 66291
OPTUS C1                
1 27831U 03028B   21193.62960362 -.00000146  00000-0  00000-0 0  9996
2 27831   2.3582  90.1824 0005934  21.0173 201.9007  1.00271978 35004
GALAXY 23 (G-23)        
1 27854U 03034A   21193.56547387  .00000019  00000-0  00000-0 0  9997
2 27854   0.0278 271.2397 0003217 205.3842 256.6129  1.00271322 65687
USA 170                 
1 27875U 03040A   21193.45735906 -.00000270  00000-0  00000-0 0  9991
2 27875   6.6745  62.1150 0004478  66.6509 284.1145  1.00269548 14903
GALAXY 13 (HORIZONS 1)  
1 27954U 03044A   21193.37043104  .00000054  00000-0  00000-0 0  9995
2 27954   0.0143  55.7220 0003512 131.7557 109.3291  1.00269584 28514
YAMAL 202               
1 28089U 03053A   21193.63631892 -.00000075  00000-0  00000-0 0  9995
2 28089   1.7931  91.5697 0007489  13.5545 218.1927  1.00272515 64629
UFO 11 (USA 174)        
1 28117U 03057A   21193.55244625 -.00000091  00000-0  00000-0 0  9994
2 28117   6.5289  37.8540 0005800  42.2483 124.1219  1.00271216 64396
USA 176 (DSP 22)        
1 28158U 04004A   21193.53591550 -.00000216  00000-0  00000-0 0  9991
2 28158   9.6538  37.1222 0000743  81.9463  91.7712  1.00276593 14879
ABS-4 (MOBISAT-1)       
1 28184U 04007A   21193.54974193  .00000044  00000-0  00000-0 0  9990
2 28184   1.4762  92.8593 0005826  20.6645  76.0418  1.00275070 34280
EUTELSAT 7A             
1 28187U 04008A   21193.58031123  .00000109  00000-0  00000-0 0  9997
2 28187   1.2663  90.8191 0004232  23.5064 246.0666  1.00273903 63290
AMC-11 (GE-11)          
1 28252U 04017A   21193.58771161  .00000074  00000-0  00000-0 0  9994
2 28252   0.0376 305.7500 0002619 164.1229 261.3953  1.00273528 62825
INTELSAT 10-02          
1 28358U 04022A   21193.53726719 -.00000005  00000-0  00000-0 0  9996
2 28358   0.0459 244.1506 0000753 239.4127 359.4803  1.00274036 62497
ANIK F2                 
1 28378U 04027A   21193.38476568 -.00000044  00000-0  00000-0 0  9993
2 28378   0.0147 325.9042 0000114 276.2417  75.7870  1.00271882 23202
AMC-15                  
1 28446U 04041A   21193.56492764 -.00000083  00000-0  00000-0 0  9994
2 28446   0.0150  15.5801 0002832 101.3759 272.0390  1.00271793 61261
AMC-16                  
1 28472U 04048A   21193.52060514 -.00000200  00000-0  00000+0 0  9990
2 28472   0.0390 290.6727 0001078 167.3943 294.9871  1.00263695 60760
NSS-10 (AMC-12)         
1 28526U 05003A   21193.38655172 -.00000246  00000-0  00000-0 0  9997
2 28526   1.9488  90.8996 0002806  18.4071 282.8902  1.00270937 35090
XTAR-EUR                
1 28542U 05005A   21193.11332936  .00000157  00000-0  00000-0 0  9998
2 28542   0.0212  79.8452 0002303  31.5025 248.6727  1.00271006 60129
XM-3 (RHYTHM)           
1 28626U 05008A   21193.44880994 -.00000200  00000-0  00000+0 0  9991
2 28626   0.0241  56.5886 0001483  32.7461 277.6827  1.00269175 60017
INMARSAT 4-F1           
1 28628U 05009A   21193.42258017 -.00000256  00000-0  00000-0 0  9999
2 28628   3.3807  31.3363 0002670  83.7255 111.0936  1.00271471 59618
DIRECTV 8               
1 28659U 05019A   21193.51380072  .00000007  00000-0  00000-0 0  9994
2 28659   0.0197  67.9002 0002817  45.7435 242.8954  1.00271207 59018
GALAXY 28 (G-28)        
1 28702U 05022A   21193.51982000 -.00000179  00000-0  00000-0 0  9997
2 28702   0.0419  77.7005 0000832 320.8472 350.2384  1.00266255 33929
EXPRESS-AM3             
1 28707U 05023A   21193.54215241  .00000138  00000-0  00000-0 0  9996
2 28707   2.7384  86.9639 0000493  98.6206 323.1964  1.00270796 58786
THAICOM 4               
1 28786U 05028A   21193.56134431 -.00000357  00000-0  00000-0 0  9995
2 28786   0.0222  55.7150 0002408  55.2543 141.2933  1.00267707 34202
GALAXY 14 (G-14)        
1 28790U 05030A   21193.53848850  .00000074  00000-0  00000-0 0  9992
2 28790   0.4140  95.1460 0002204   5.5658  28.3612  1.00507842 58258
ANIK F1R                
1 28868U 05036A   21193.38716271 -.00000068  00000-0  00000-0 0  9992
2 28868   0.0159  46.7894 0002426  31.2519 244.5145  1.00271583 28396
GALAXY 15 (G-15)        
1 28884U 05041A   21193.58649925  .00000085  00000-0  00000-0 0  9997
2 28884   0.0208 293.2919 0001675 191.2075 244.3258  1.00270125 57559
SYRACUSE 3A             
1 28885U 05041B   21193.54695038  .00000134  00000-0  00000-0 0  9995
2 28885   0.2789  97.8084 0003221   8.7548  67.9719  1.00270273 57693
INMARSAT 4-F2           
1 28899U 05044A   21193.55035258  .00000015  00000-0  00000-0 0  9994
2 28899   3.2556  34.0177 0002641  85.3733  73.2854  1.00271697 57467
TELKOM 2                
1 28902U 05046A   21193.39353062 -.00000168  00000-0  00000-0 0  9999
2 28902   0.1298  97.1107 0000150  97.4489 235.2651  0.99150247 57378
SPACEWAY 2              
1 28903U 05046B   21193.58031196  .00000109  00000-0  00000-0 0  9996
2 28903   1.1054  91.7698 0000326 328.7650 300.1645  1.00272176 33288
METEOSAT-9 (MSG-2)      
1 28912U 05049B   21193.29685969  .00000019  00000-0  00000-0 0  9990
2 28912   5.2626  68.3200 0000838  15.0395 317.2362  1.00269661 56978
EUTELSAT 174A           
1 28924U 05052A   21193.53558255  .00000015  00000-0  00000-0 0  9997
2 28924   0.0424  16.5851 0006099  95.1778 185.6803  1.00271330 34278
ECHOSTAR 10             
1 28935U 06003A   21193.51554544 -.00000050  00000-0  00000-0 0  9991
2 28935   0.0357 115.1617 0001235 354.4455 256.4294  1.00271903 56418
SPAINSAT                
1 28945U 06007A   21193.27669659 -.00000210  00000-0  00000-0 0  9991
2 28945   0.0242 279.1471 0003291 224.0759 216.7996  1.00270817 56156
EUTELSAT HOTBIRD 13E    
1 28946U 06007B   21193.03770851  .00000093  00000-0  00000-0 0  9991
2 28946   0.0777 127.2208 0005754   7.5811 181.9211  1.00273671 56244
JCSAT-5A                
1 29045U 06010A   21193.42031205 -.00000322  00000-0  00000-0 0  9998
2 29045   0.0166 318.0753 0001811 170.9084  84.9164  1.00271134 55700
ASTRA 1KR               
1 29055U 06012A   21193.25424216  .00000126  00000-0  00000-0 0  9991
2 29055   0.0690 267.6286 0002642 258.3443 235.1375  1.00275183 27662
EWS-G1 (GOES 13)        
1 29155U 06018A   21193.54974193  .00000045  00000-0  00000-0 0  9994
2 29155   0.0689 232.6982 0004634 315.8684   1.1911  1.00272698 25321
EUTELSAT 113 WEST A     
1 29162U 06020A   21193.51502201 -.00000032  00000-0  00000-0 0  9996
2 29162   0.0380 250.0990 0003032 221.9824 250.9436  1.00272497 55421
